{"type": "FeatureCollection", "features": [ {"type": "Feature", "properties": {"norad_id": 30196, "name": "FENGYUN 1C DEB", "group": "fengyun-1c-debris", "lat": -27.01247999118196, "lon": -114.41084432010686, "alt_km": 839.6599222107261, "timestamp": "2025-12-03T10:52:57.728055+00:00", "meta": {"OBJECT_NAME": "FENGYUN 1C DEB", "OBJECT_ID": "1999-025VD", "EPOCH": "2025-12-03T05:00:35.218080", "MEAN_MOTION": 14.25842743, "ECCENTRICITY": 0.0087064, "INCLINATION": 98.6406, "RA_OF_ASC_NODE": 69.7939, "ARG_OF_PERICENTER": 90.6041, "MEAN_ANOMALY": 300.3805, "EPHEMERIS_TYPE": 0, "CLASSIFICATION_TYPE": "U", "NORAD_CAT_ID": 30196, "ELEMENT_SET_NO": 999, "REV_AT_EPOCH": 98229, "BSTAR": 8.1434e-05, "MEAN_MOTION_DOT": 1.59e-06, "MEAN_MOTION_DDOT": 0}, "tle": {"line1": "1 30196U 99025VD  25337.20874095  .00000159  00000+0  81434-4 0  9997", "line2": "2 30196  98.6406  69.7939 0087064  90.6041 300.3805 14.25842743982291"}}, "geometry": {"type": "Point", "coordinates": [-114.41084432010686, -27.01247999118196]}}, {"type": "Feature", "properties": {"norad_id": 30197, "name": "FENGYUN 1C DEB", "group": "fengyun-1c-debris", "lat": 32.849011675736854, "lon": -103.37999299706854, "alt_km": 801.5008991825162, "timestamp": "2025-12-03T10:52:57.728066+00:00", "meta": {"OBJECT_NAME": "FENGYUN 1C DEB", "OBJECT_ID": "1999-025VE", "EPOCH": "2025-12-02T18:16:13.916352", "MEAN_MOTION": 14.37111708, "ECCENTRICITY": 0.0057006, "INCLINATION": 98.9373, "RA_OF_ASC_NODE": 261.733, "ARG_OF_PERICENTER": 244.6853, "MEAN_ANOMALY": 169.3917, "EPHEMERIS_TYPE": 0, "CLASSIFICATION_TYPE": "U", "NORAD_CAT_ID": 30197, "ELEMENT_SET_NO": 999, "REV_AT_EPOCH": 98343, "BSTAR": 0.0011855, "MEAN_MOTION_DOT": 3.542e-05, "MEAN_MOTION_DDOT": 0}, "tle": {"line1": "1 30197U 99025VE  25336.76127218  .00003542  00000+0  11855-2 0  9993", "line2": "2 30197  98.9373 261.7330 0057006 244.6853 169.3917 14.37111708983439"}}, "geometry": {"type": "Point", "coordinates": [-103.37999299706854, 32.849011675736854]}}, {"type": "Feature", "properties": {"norad_id": 30198, "name": "FENGYUN 1C DEB", "group": "fengyun-1c-debris", "lat": -81.50328377380292, "lon": -167.3763427789268, "alt_km": 677.8845230193238, "timestamp": "2025-12-03T10:52:57.728076+00:00", "meta": {"OBJECT_NAME": "FENGYUN 1C DEB", "OBJECT_ID": "1999-025VF", "EPOCH": "2025-12-03T01:38:20.135040", "MEAN_MOTION": 14.50081161, "ECCENTRICITY": 0.0107138, "INCLINATION": 98.4478, "RA_OF_ASC_NODE": 108.0775, "ARG_OF_PERICENTER": 227.6699, "MEAN_ANOMALY": 192.874, "EPHEMERIS_TYPE": 0, "CLASSIFICATION_TYPE": "U", "NORAD_CAT_ID": 30198, "ELEMENT_SET_NO": 999, "REV_AT_EPOCH": 98367, "BSTAR": 0.0028435, "MEAN_MOTION_DOT": 0.00011842, "MEAN_MOTION_DDOT": 0}, "tle": {"line1": "1 30198U 99025VF  25337.06828860  .00011842  00000+0  28435-2 0  9993", "line2": "2 30198  98.4478 108.0775 0107138 227.6699 192.8740 14.50081161983673"}}, "geometry": {"type": "Point", "coordinates": [-167.3763427789268, -81.50328377380292]}}, {"type": "Feature", "properties": {"norad_id": 30199, "name": "FENGYUN 1C DEB", "group": "fengyun-1c-debris", "lat": -39.781163227573046, "lon": 8.454192506136593, "alt_km": 716.7967309098194, "timestamp": "2025-12-03T10:52:57.728086+00:00", "meta": {"OBJECT_NAME": "FENGYUN 1C DEB", "OBJECT_ID": "1999-025VG", "EPOCH": "2025-12-03T01:23:23.228736", "MEAN_MOTION": 14.38417197, "ECCENTRICITY": 0.0078129, "INCLINATION": 98.3859, "RA_OF_ASC_NODE": 1.013, "ARG_OF_PERICENTER": 337.9949, "MEAN_ANOMALY": 95.03, "EPHEMERIS_TYPE": 0, "CLASSIFICATION_TYPE": "U", "NORAD_CAT_ID": 30199, "ELEMENT_SET_NO": 999, "REV_AT_EPOCH": 98271, "BSTAR": 0.0013115, "MEAN_MOTION_DOT": 4.102e-05, "MEAN_MOTION_DDOT": 0}, "tle": {"line1": "1 30199U 99025VG  25337.05790774  .00004102  00000+0  13115-2 0  9995", "line2": "2 30199  98.3859   1.0130 0078129 337.9949  95.0300 14.38417197982711"}}, "geometry": {"type": "Point", "coordinates": [8.454192506136593, -39.781163227573046]}}, {"type": "Feature", "properties": {"norad_id": 30200, "name": "FENGYUN 1C DEB", "group": "fengyun-1c-debris", "lat": 65.34300786132127, "lon": 12.360425058364488, "alt_km": 707.7082890426445, "timestamp": "2025-12-03T10:52:57.728096+00:00", "meta": {"OBJECT_NAME": "FENGYUN 1C DEB", "OBJECT_ID": "1999-025VH", "EPOCH": "2025-12-03T00:13:39.935136", "MEAN_MOTION": 14.22264607, "ECCENTRICITY": 0.0147411, "INCLINATION": 99.1134, "RA_OF_ASC_NODE": 171.4339, "ARG_OF_PERICENTER": 126.93, "MEAN_ANOMALY": 234.5485, "EPHEMERIS_TYPE": 0, "CLASSIFICATION_TYPE": "U", "NORAD_CAT_ID": 30200, "ELEMENT_SET_NO": 999, "REV_AT_EPOCH": 97844, "BSTAR": 0.0002035, "MEAN_MOTION_DOT": 4.58e-06, "MEAN_MOTION_DDOT": 0}, "tle": {"line1": "1 30200U 99025VH  25337.00948999  .00000458  00000+0  20350-3 0  9997", "line2": "2 30200  99.1134 171.4339 0147411 126.9300 234.5485 14.22264607978448"}}, "geometry": {"type": "Point", "coordinates": [12.360425058364488, 65.34300786132127]}}, {"type": "Feature", "properties": {"norad_id": 30201, "name": "FENGYUN 1C DEB", "group": "fengyun-1c-debris", "lat": 1.681333274771459, "lon": 110.76700004132167, "alt_km": 798.9343278450642, "timestamp": "2025-12-03T10:52:57.728107+00:00", "meta": {"OBJECT_NAME": "FENGYUN 1C DEB", "OBJECT_ID": "1999-025VJ", "EPOCH": "2025-12-02T21:22:25.866624", "MEAN_MOTION": 14.22908745, "ECCENTRICITY": 0.0028893, "INCLINATION": 99.4007, "RA_OF_ASC_NODE": 110.4453, "ARG_OF_PERICENTER": 341.2921, "MEAN_ANOMALY": 18.7191, "EPHEMERIS_TYPE": 0, "CLASSIFICATION_TYPE": "U", "NORAD_CAT_ID": 30201, "ELEMENT_SET_NO": 999, "REV_AT_EPOCH": 97687, "BSTAR": 0.00057545, "MEAN_MOTION_DOT": 1.249e-05, "MEAN_MOTION_DDOT": 0}, "tle": {"line1": "1 30201U 99025VJ  25336.89057716  .00001249  00000+0  57545-3 0  9997", "line2": "2 30201  99.4007 110.4453 0028893 341.2921  18.7191 14.22908745976873"}}, "geometry": {"type": "Point", "coordinates": [110.76700004132167, 1.681333274771459]}}, {"type": "Feature", "properties": {"norad_id": 30202, "name": "FENGYUN 1C DEB", "group": "fengyun-1c-debris", "lat": 78.81820484912642, "lon": 24.183295207728957, "alt_km": 683.4110052522583, "timestamp": "2025-12-03T10:52:57.728117+00:00", "meta": {"OBJECT_NAME": "FENGYUN 1C DEB", "OBJECT_ID": "1999-025VK", "EPOCH": "2025-12-02T19:37:13.495584", "MEAN_MOTION": 14.52065046, "ECCENTRICITY": 0.0039714, "INCLINATION": 98.6411, "RA_OF_ASC_NODE": 73.8193, "ARG_OF_PERICENTER": 89.6522, "MEAN_ANOMALY": 270.9223, "EPHEMERIS_TYPE": 0, "CLASSIFICATION_TYPE": "U", "NORAD_CAT_ID": 30202, "ELEMENT_SET_NO": 999, "REV_AT_EPOCH": 98145, "BSTAR": 0.0031218, "MEAN_MOTION_DOT": 0.00012732, "MEAN_MOTION_DDOT": 0}, "tle": {"line1": "1 30202U 99025VK  25336.81751731  .00012732  00000+0  31218-2 0  9995", "line2": "2 30202  98.6411  73.8193 0039714  89.6522 270.9223 14.52065046981450"}}, "geometry": {"type": "Point", "coordinates": [24.183295207728957, 78.81820484912642]}}, {"type": "Feature", "properties": {"norad_id": 30205, "name": "FENGYUN 1C DEB", "group": "fengyun-1c-debris", "lat": 60.8228850257647, "lon": -74.39894193812238, "alt_km": 924.1074601342989, "timestamp": "2025-12-03T10:52:57.728128+00:00", "meta": {"OBJECT_NAME": "FENGYUN 1C DEB", "OBJECT_ID": "1999-025VN", "EPOCH": "2025-12-02T21:03:38.782080", "MEAN_MOTION": 13.88026756, "ECCENTRICITY": 0.0120638, "INCLINATION": 98.9968, "RA_OF_ASC_NODE": 88.5627, "ARG_OF_PERICENTER": 206.5087, "MEAN_ANOMALY": 276.4705, "EPHEMERIS_TYPE": 0, "CLASSIFICATION_TYPE": "U", "NORAD_CAT_ID": 30205, "ELEMENT_SET_NO": 999, "REV_AT_EPOCH": 95501, "BSTAR": 0.00046637, "MEAN_MOTION_DOT": 5.46e-06, "MEAN_MOTION_DDOT": 0}, "tle": {"line1": "1 30205U 99025VN  25336.87753220  .00000546  00000+0  46637-3 0  9991", "line2": "2 30205  98.9968  88.5627 0120638 206.5087 276.4705 13.88026756955012"}}, "geometry": {"type": "Point", "coordinates": [-74.39894193812238, 60.8228850257647]}}, {"type": "Feature", "properties": {"norad_id": 30206, "name": "FENGYUN 1C DEB", "group": "fengyun-1c-debris", "lat": 9.259959090010977, "lon": 158.29285634621948, "alt_km": 757.5989614524933, "timestamp": "2025-12-03T10:52:57.728138+00:00", "meta": {"OBJECT_NAME": "FENGYUN 1C DEB", "OBJECT_ID": "1999-025VP", "EPOCH": "2025-12-02T22:30:44.908128", "MEAN_MOTION": 14.4909082, "ECCENTRICITY": 0.0146543, "INCLINATION": 98.2311, "RA_OF_ASC_NODE": 336.4376, "ARG_OF_PERICENTER": 66.1014, "MEAN_ANOMALY": 295.5454, "EPHEMERIS_TYPE": 0, "CLASSIFICATION_TYPE": "U", "NORAD_CAT_ID": 30206, "ELEMENT_SET_NO": 999, "REV_AT_EPOCH": 99259, "BSTAR": 0.00057073, "MEAN_MOTION_DOT": 2.438e-05, "MEAN_MOTION_DDOT": 0}, "tle": {"line1": "1 30206U 99025VP  25336.93801977  .00002438  00000+0  57073-3 0  9990", "line2": "2 30206  98.2311 336.4376 0146543  66.1014 295.5454 14.49090820992595"}}, "geometry": {"type": "Point", "coordinates": [158.29285634621948, 9.259959090010977]}}, {"type": "Feature", "properties": {"norad_id": 30207, "name": "FENGYUN 1C DEB", "group": "fengyun-1c-debris", "lat": -42.909732272788915, "lon": 97.08604030793929, "alt_km": 1124.686092559794, "timestamp": "2025-12-03T10:52:57.728149+00:00", "meta": {"OBJECT_NAME": "FENGYUN 1C DEB", "OBJECT_ID": "1999-025VQ", "EPOCH": "2025-12-02T07:33:44.368704", "MEAN_MOTION": 13.79122812, "ECCENTRICITY": 0.026021, "INCLINATION": 98.574, "RA_OF_ASC_NODE": 87.9927, "ARG_OF_PERICENTER": 176.5123, "MEAN_ANOMALY": 249.597, "EPHEMERIS_TYPE": 0, "CLASSIFICATION_TYPE": "U", "NORAD_CAT_ID": 30207, "ELEMENT_SET_NO": 999, "REV_AT_EPOCH": 94919, "BSTAR": 0.00041607, "MEAN_MOTION_DOT": 5.11e-06, "MEAN_MOTION_DDOT": 0}, "tle": {"line1": "1 30207U 99025VQ  25336.31509686  .00000511  00000+0  41607-3 0  9991", "line2": "2 30207  98.5740  87.9927 0260210 176.5123 249.5970 13.79122812949199"}}, "geometry": {"type": "Point", "coordinates": [97.08604030793929, -42.909732272788915]}}]}